[
  {
    "name": "ONEWEB-0597",
    "noradId": "54663",
    "line1": "1 54663U 22166X   26164.72993343 -.00000023  00000+0 -87611-4 0  9993",
    "line2": "2 54663  87.9252 244.6754 0002032  95.4104 264.7262 13.21826536171084"
  },
  {
    "name": "ONEWEB-0600",
    "noradId": "54664",
    "line1": "1 54664U 22166Y   26164.93850316  .00000049  00000+0  87991-4 0  9996",
    "line2": "2 54664  87.9255 244.6254 0001883  96.0840 264.0509 13.21823953171087"
  },
  {
    "name": "ONEWEB-0601",
    "noradId": "54665",
    "line1": "1 54665U 22166Z   26164.93010100  .00000031  00000+0  42603-4 0  9998",
    "line2": "2 54665  87.9252 244.6431 0002147  92.4611 267.6769 13.21825334171275"
  },
  {
    "name": "ONEWEB-0602",
    "noradId": "54666",
    "line1": "1 54666U 22166AA  26164.74422476 -.00000022  00000+0 -83898-4 0  9994",
    "line2": "2 54666  87.9254 244.6859 0001774  93.9493 266.1844 13.21826202171094"
  },
  {
    "name": "ONEWEB-0603",
    "noradId": "54667",
    "line1": "1 54667U 22166AB  26164.67442518 -.00000088  00000+0 -24453-3 0  9999",
    "line2": "2 54667  87.9263 244.6564 0001980  95.8548 264.2812 13.21826577171010"
  },
  {
    "name": "ONEWEB-0604",
    "noradId": "54668",
    "line1": "1 54668U 22166AC  26164.73833535 -.00000106  00000+0 -28708-3 0  9998",
    "line2": "2 54668  87.9263 244.6596 0001998 101.4156 258.7202 13.21827160170989"
  },
  {
    "name": "ONEWEB-0605",
    "noradId": "54669",
    "line1": "1 54669U 22166AD  26164.73161988 -.00000015  00000+0 -68706-4 0  9997",
    "line2": "2 54669  87.9255 244.6745 0002570  91.4910 268.6518 13.21826938171051"
  },
  {
    "name": "ONEWEB-0606",
    "noradId": "54670",
    "line1": "1 54670U 22166AE  26164.75348402 -.00000065  00000+0 -18861-3 0  9990",
    "line2": "2 54670  87.9253 244.6828 0001961 103.0368 257.0985 13.21826385171116"
  },
  {
    "name": "ONEWEB-0607",
    "noradId": "54671",
    "line1": "1 54671U 22166AF  26164.71982464  .00000074  00000+0  14675-3 0  9996",
    "line2": "2 54671  87.9262 244.6600 0001959  94.6134 265.5224 13.21824129171088"
  },
  {
    "name": "ONEWEB-0608",
    "noradId": "54672",
    "line1": "1 54672U 22166AG  26164.72655739 -.00000009  00000+0 -54447-4 0  9992",
    "line2": "2 54672  87.9264 244.6553 0002345  87.8271 272.3132 13.21827644171094"
  },
  {
    "name": "ONEWEB-0610",
    "noradId": "54673",
    "line1": "1 54673U 22166AH  26164.93345680  .00000073  00000+0  14447-3 0  9991",
    "line2": "2 54673  87.9253 244.6287 0002168  82.3725 277.7655 13.21824399171020"
  },
  {
    "name": "ONEWEB-0611",
    "noradId": "54674",
    "line1": "1 54674U 22166AJ  26164.92672132  .00000030  00000+0  40085-4 0  9997",
    "line2": "2 54674  87.9253 244.6260 0002050 103.0177 257.1186 13.21827818171013"
  },
  {
    "name": "ONEWEB-0612",
    "noradId": "54675",
    "line1": "1 54675U 22166AK  26164.71310711  .00000034  00000+0  50589-4 0  9991",
    "line2": "2 54675  87.9266 244.6637 0002108  94.8563 265.2811 13.21824878170978"
  },
  {
    "name": "ONEWEB-0615",
    "noradId": "54676",
    "line1": "1 54676U 22166AL  26164.92001660  .00000098  00000+0  20510-3 0  9995",
    "line2": "2 54676  87.9255 244.6372 0001841 105.0141 255.1197 13.21826787171015"
  },
  {
    "name": "ONEWEB-0655",
    "noradId": "54677",
    "line1": "1 54677U 22166AM  26164.74507332 -.00000083  00000+0 -23347-3 0  9990",
    "line2": "2 54677  87.9256 244.6735 0001839  93.9986 266.1358 13.21826107170981"
  },
  {
    "name": "ONEWEB-0659",
    "noradId": "54678",
    "line1": "1 54678U 22166AN  26164.91328413  .00000048  00000+0  85252-4 0  9994",
    "line2": "2 54678  87.9253 244.6397 0002071 101.1892 258.9475 13.21828511171093"
  },
  {
    "name": "ONEWEB-0685",
    "noradId": "54679",
    "line1": "1 54679U 22166AP  26164.91342314 -.00000034  00000+0 -11434-3 0  9998",
    "line2": "2 54679  87.9252 244.6321 0002052  88.3115 271.8255 13.21847203170989"
  },
  {
    "name": "ONEWEB-0712",
    "noradId": "54680",
    "line1": "1 54680U 22166AQ  26164.86814834  .00000071  00000+0  15179-3 0  9994",
    "line2": "2 54680  87.9101 229.4335 0001609  90.3610 269.7706 13.16594260171625"
  },
  {
    "name": "ONEWEB-0714",
    "noradId": "54681",
    "line1": "1 54681U 22166AR  26164.91831409  .00000045  00000+0  76443-4 0  9991",
    "line2": "2 54681  87.9253 244.6283 0001702  97.6084 262.5243 13.21824807171103"
  },
  {
    "name": "ONEWEB-0532",
    "noradId": "55140",
    "line1": "1 55140U 23004A   26164.91981744  .00011350  00000+0  29120-1 0  9990",
    "line2": "2 55140  87.9132   6.5151 0002209  89.7053 270.4332 13.17748884167152"
  },
  {
    "name": "ONEWEB-0533",
    "noradId": "55141",
    "line1": "1 55141U 23004B   26164.87426237  .00000100  00000+0  24283-3 0  9995",
    "line2": "2 55141  87.8944 351.3296 0001845  83.7685 276.3653 13.12444616167628"
  },
  {
    "name": "ONEWEB-0541",
    "noradId": "55142",
    "line1": "1 55142U 23004C   26164.90154196  .00000597  00000+0  16494-2 0  9996",
    "line2": "2 55142  87.8899  21.7118 0001867  90.7297 269.4045 13.11418165165513"
  },
  {
    "name": "ONEWEB-0543",
    "noradId": "55143",
    "line1": "1 55143U 23004D   26164.90118090  .00000008  00000+0 -13536-4 0  9994",
    "line2": "2 55143  87.9158 336.1237 0001609  90.6885 269.4431 13.18685131169265"
  },
  {
    "name": "ONEWEB-0544",
    "noradId": "55144",
    "line1": "1 55144U 23004E   26164.89443916  .00000032  00000+0  48778-4 0  9993",
    "line2": "2 55144  87.9159 336.1249 0001715  97.4871 262.6456 13.18685428169269"
  },
  {
    "name": "ONEWEB-0560",
    "noradId": "55145",
    "line1": "1 55145U 23004F   26164.88769563  .00000053  00000+0  10086-3 0  9995",
    "line2": "2 55145  87.9159 336.1155 0001610  97.6371 262.4945 13.18686627169271"
  },
  {
    "name": "ONEWEB-0565",
    "noradId": "55146",
    "line1": "1 55146U 23004G   26164.88095099  .00000035  00000+0  57008-4 0  9998",
    "line2": "2 55146  87.9149 336.1449 0001996 104.3439 255.7915 13.18685072169269"
  },
  {
    "name": "ONEWEB-0567",
    "noradId": "55147",
    "line1": "1 55147U 23004H   26164.87420980  .00000025  00000+0  29890-4 0  9996",
    "line2": "2 55147  87.9159 336.1302 0001838 104.3038 255.8299 13.18685855169264"
  },
  {
    "name": "ONEWEB-0569",
    "noradId": "55148",
    "line1": "1 55148U 23004J   26164.88484431  .00000346  00000+0  91372-3 0  9998",
    "line2": "2 55148  87.8958 320.8769 0001464 125.9608 234.1657 13.13469757169742"
  },
  {
    "name": "ONEWEB-0570",
    "noradId": "55149",
    "line1": "1 55149U 23004K   26164.94164364 -.00000006  00000+0 -48335-4 0  9993",
    "line2": "2 55149  87.9158 336.1146 0002228  95.3743 264.7644 13.18685194169266"
  },
  {
    "name": "ONEWEB-0571",
    "noradId": "55150",
    "line1": "1 55150U 23004L   26164.93490831 -.00000019  00000+0 -80145-4 0  9994",
    "line2": "2 55150  87.9158 336.1153 0002105 129.1015 231.0305 13.18688085169272"
  }
]