OBJECT_NAME,OBJECT_ID,EPOCH,MEAN_MOTION,ECCENTRICITY,INCLINATION,RA_OF_ASC_NODE,ARG_OF_PERICENTER,MEAN_ANOMALY,EPHEMERIS_TYPE,CLASSIFICATION_TYPE,NORAD_CAT_ID,ELEMENT_SET_NO,REV_AT_EPOCH,BSTAR,MEAN_MOTION_DOT,MEAN_MOTION_DDOT
ONEWEB-0597,2022-166X,2026-06-13T17:31:06.248352,13.21826536,.00020321,87.9252,244.6754,95.4104,264.7262,0,U,54663,999,17108,-.87610749E-4,-.23E-6,0
ONEWEB-0600,2022-166Y,2026-06-13T22:31:26.673024,13.21823953,.00018837,87.9255,244.6254,96.0840,264.0509,0,U,54664,999,17108,.87991491E-4,.49E-6,0
ONEWEB-0601,2022-166Z,2026-06-13T22:19:20.726400,13.21825334,.0002147,87.9252,244.6431,92.4611,267.6769,0,U,54665,999,17127,.42603049E-4,.31E-6,0
ONEWEB-0602,2022-166AA,2026-06-13T17:51:41.019264,13.21826202,.00017747,87.9254,244.6859,93.9493,266.1844,0,U,54666,999,17109,-.83898487E-4,-.22E-6,0
ONEWEB-0603,2022-166AB,2026-06-13T16:11:10.335552,13.21826577,.00019806,87.9263,244.6564,95.8548,264.2812,0,U,54667,999,17101,-.2445264E-3,-.88E-6,0
ONEWEB-0604,2022-166AC,2026-06-13T17:43:12.174240,13.21827160,.00019986,87.9263,244.6596,101.4156,258.7202,0,U,54668,999,17098,-.28707923E-3,-.106E-5,0
ONEWEB-0605,2022-166AD,2026-06-13T17:33:31.957632,13.21826938,.00025703,87.9255,244.6745,91.4910,268.6518,0,U,54669,999,17105,-.68706052E-4,-.15E-6,0
ONEWEB-0606,2022-166AE,2026-06-13T18:05:01.019328,13.21826385,.0001961,87.9253,244.6828,103.0368,257.0985,0,U,54670,999,17111,-.1886091E-3,-.65E-6,0
ONEWEB-0607,2022-166AF,2026-06-13T17:16:32.848896,13.21824129,.00019596,87.9262,244.6600,94.6134,265.5224,0,U,54671,999,17108,.14675386E-3,.74E-6,0
ONEWEB-0608,2022-166AG,2026-06-13T17:26:14.558496,13.21827644,.00023455,87.9264,244.6553,87.8271,272.3132,0,U,54672,999,17109,-.54446602E-4,-.9E-7,0
ONEWEB-0610,2022-166AH,2026-06-13T22:24:10.667520,13.21824399,.00021686,87.9253,244.6287,82.3725,277.7655,0,U,54673,999,17102,.14447325E-3,.73E-6,0
ONEWEB-0611,2022-166AJ,2026-06-13T22:14:28.722048,13.21827818,.000205,87.9253,244.6260,103.0177,257.1186,0,U,54674,999,17101,.40084822E-4,.3E-6,0
ONEWEB-0612,2022-166AK,2026-06-13T17:06:52.454304,13.21824878,.00021087,87.9266,244.6637,94.8563,265.2811,0,U,54675,999,17097,.50588857E-4,.34E-6,0
ONEWEB-0615,2022-166AL,2026-06-13T22:04:49.434240,13.21826787,.00018415,87.9255,244.6372,105.0141,255.1197,0,U,54676,999,17101,.2051035E-3,.98E-6,0
ONEWEB-0655,2022-166AM,2026-06-13T17:52:54.334848,13.21826107,.00018391,87.9256,244.6735,93.9986,266.1358,0,U,54677,999,17098,-.2334684E-3,-.83E-6,0
ONEWEB-0659,2022-166AN,2026-06-13T21:55:07.748832,13.21828511,.00020718,87.9253,244.6397,101.1892,258.9475,0,U,54678,999,17109,.85252173E-4,.48E-6,0
ONEWEB-0685,2022-166AP,2026-06-13T21:55:19.759296,13.21847203,.00020526,87.9252,244.6321,88.3115,271.8255,0,U,54679,999,17098,-.11434302E-3,-.34E-6,0
ONEWEB-0712,2022-166AQ,2026-06-13T20:50:08.016576,13.16594260,.00016096,87.9101,229.4335,90.3610,269.7706,0,U,54680,999,17162,.15179302E-3,.71E-6,0
ONEWEB-0714,2022-166AR,2026-06-13T22:02:22.337376,13.21824807,.00017022,87.9253,244.6283,97.6084,262.5243,0,U,54681,999,17110,.76443264E-4,.45E-6,0
ONEWEB-0532,2023-004A,2026-06-13T22:04:32.226816,13.17748884,.00022093,87.9132,6.5151,89.7053,270.4332,0,U,55140,999,16715,.29119784E-1,.1135E-3,0
ONEWEB-0533,2023-004B,2026-06-13T20:58:56.268768,13.12444616,.00018456,87.8944,351.3296,83.7685,276.3653,0,U,55141,999,16762,.24283439E-3,.1E-5,0
ONEWEB-0541,2023-004C,2026-06-13T21:38:13.225344,13.11418165,.00018676,87.8899,21.7118,90.7297,269.4045,0,U,55142,999,16551,.1649365E-2,.597E-5,0
ONEWEB-0543,2023-004D,2026-06-13T21:37:42.029760,13.18685131,.00016091,87.9158,336.1237,90.6885,269.4431,0,U,55143,999,16926,-.13536028E-4,.8E-7,0
ONEWEB-0544,2023-004E,2026-06-13T21:27:59.543424,13.18685428,.00017155,87.9159,336.1249,97.4871,262.6456,0,U,55144,999,16926,.48778291E-4,.32E-6,0
ONEWEB-0560,2023-004F,2026-06-13T21:18:16.902432,13.18686627,.00016107,87.9159,336.1155,97.6371,262.4945,0,U,55145,999,16927,.10086153E-3,.53E-6,0
ONEWEB-0565,2023-004G,2026-06-13T21:08:34.165536,13.18685072,.00019962,87.9149,336.1449,104.3439,255.7915,0,U,55146,999,16926,.57007508E-4,.35E-6,0
ONEWEB-0567,2023-004H,2026-06-13T20:58:51.726720,13.18685855,.00018388,87.9159,336.1302,104.3038,255.8299,0,U,55147,999,16926,.29889786E-4,.25E-6,0
ONEWEB-0569,2023-004J,2026-06-13T21:14:10.548384,13.13469757,.00014649,87.8958,320.8769,125.9608,234.1657,0,U,55148,999,16974,.91372007E-3,.346E-5,0
ONEWEB-0570,2023-004K,2026-06-13T22:35:58.010496,13.18685194,.00022283,87.9158,336.1146,95.3743,264.7644,0,U,55149,999,16926,-.4833508E-4,-.6E-7,0
ONEWEB-0571,2023-004L,2026-06-13T22:26:16.077984,13.18688085,.00021051,87.9158,336.1153,129.1015,231.0305,0,U,55150,999,16927,-.80144878E-4,-.19E-6,0
